{"fetched_at":"2026-03-30T06:02:59Z","count":15439,"tles":[{"name":"STARLINK-5591","line1":"1 55771U 23028AG  26087.65002847  .00000492  00000+0  49024-4 0  9992","line2":"2 55771  70.0009 176.6329 0003206 270.8599  89.2193 14.98333247169370","category":"Starlink"}]}